{"type": "FeatureCollection", "features": [ {"type": "Feature", "properties": {"norad_id": 34077, "name": "IRIDIUM 33 DEB", "group": "iridium-33-debris", "lat": -54.614071291953294, "lon": -122.3932161392852, "alt_km": 692.205650642899, "timestamp": "2025-12-10T11:33:53.769208+00:00", "meta": {"OBJECT_NAME": "IRIDIUM 33 DEB", "OBJECT_ID": "1997-051CL", "EPOCH": "2025-12-10T04:04:24.302208", "MEAN_MOTION": 14.64778343, "ECCENTRICITY": 0.0010473, "INCLINATION": 86.386, "RA_OF_ASC_NODE": 52.6393, "ARG_OF_PERICENTER": 47.6544, "MEAN_ANOMALY": 342.1156, "EPHEMERIS_TYPE": 0, "CLASSIFICATION_TYPE": "U", "NORAD_CAT_ID": 34077, "ELEMENT_SET_NO": 999, "REV_AT_EPOCH": 88295, "BSTAR": 0.002184, "MEAN_MOTION_DOT": 0.00011681, "MEAN_MOTION_DDOT": 0}, "tle": {"line1": "1 34077U 97051CL  25344.16972572  .00011681  00000+0  21840-2 0  9993", "line2": "2 34077  86.3860  52.6393 0010473  47.6544 342.1156 14.64778343882958"}}, "geometry": {"type": "Point", "coordinates": [-122.3932161392852, -54.614071291953294]}}, {"type": "Feature", "properties": {"norad_id": 34079, "name": "IRIDIUM 33 DEB", "group": "iridium-33-debris", "lat": 74.57854281938181, "lon": 22.965515594817663, "alt_km": 609.425537556861, "timestamp": "2025-12-10T11:33:53.769218+00:00", "meta": {"OBJECT_NAME": "IRIDIUM 33 DEB", "OBJECT_ID": "1997-051CN", "EPOCH": "2025-12-10T01:46:30.105120", "MEAN_MOTION": 14.83410874, "ECCENTRICITY": 0.0005944, "INCLINATION": 86.3776, "RA_OF_ASC_NODE": 9.8742, "ARG_OF_PERICENTER": 16.6843, "MEAN_ANOMALY": 41.3467, "EPHEMERIS_TYPE": 0, "CLASSIFICATION_TYPE": "U", "NORAD_CAT_ID": 34079, "ELEMENT_SET_NO": 999, "REV_AT_EPOCH": 88938, "BSTAR": 0.0021847, "MEAN_MOTION_DOT": 0.00017982, "MEAN_MOTION_DDOT": 0}, "tle": {"line1": "1 34079U 97051CN  25344.07395955  .00017982  00000+0  21847-2 0  9996", "line2": "2 34079  86.3776   9.8742 0005944  16.6843  41.3467 14.83410874889383"}}, "geometry": {"type": "Point", "coordinates": [22.965515594817663, 74.57854281938181]}}, {"type": "Feature", "properties": {"norad_id": 34088, "name": "IRIDIUM 33 DEB", "group": "iridium-33-debris", "lat": 76.73389412103049, "lon": -163.79516713652612, "alt_km": 586.5136234052525, "timestamp": "2025-12-10T11:33:53.769228+00:00", "meta": {"OBJECT_NAME": "IRIDIUM 33 DEB", "OBJECT_ID": "1997-051CX", "EPOCH": "2025-12-10T03:18:56.012256", "MEAN_MOTION": 14.91176406, "ECCENTRICITY": 0.0005482, "INCLINATION": 86.3845, "RA_OF_ASC_NODE": 31.9191, "ARG_OF_PERICENTER": 185.8656, "MEAN_ANOMALY": 232.9656, "EPHEMERIS_TYPE": 0, "CLASSIFICATION_TYPE": "U", "NORAD_CAT_ID": 34088, "ELEMENT_SET_NO": 999, "REV_AT_EPOCH": 88703, "BSTAR": 0.003592, "MEAN_MOTION_DOT": 0.0003583, "MEAN_MOTION_DDOT": 0}, "tle": {"line1": "1 34088U 97051CX  25344.13814829  .00035830  00000+0  35920-2 0  9998", "line2": "2 34088  86.3845  31.9191 0005482 185.8656 232.9656 14.91176406887039"}}, "geometry": {"type": "Point", "coordinates": [-163.79516713652612, 76.73389412103049]}}, {"type": "Feature", "properties": {"norad_id": 34091, "name": "IRIDIUM 33 DEB", "group": "iridium-33-debris", "lat": 6.478889776578524, "lon": 68.28391345096705, "alt_km": 616.9393528712935, "timestamp": "2025-12-10T11:33:53.769239+00:00", "meta": {"OBJECT_NAME": "IRIDIUM 33 DEB", "OBJECT_ID": "1997-051DA", "EPOCH": "2025-12-09T06:21:21.737088", "MEAN_MOTION": 14.81387493, "ECCENTRICITY": 0.0033239, "INCLINATION": 86.3413, "RA_OF_ASC_NODE": 68.4246, "ARG_OF_PERICENTER": 305.7588, "MEAN_ANOMALY": 54.0544, "EPHEMERIS_TYPE": 0, "CLASSIFICATION_TYPE": "U", "NORAD_CAT_ID": 34091, "ELEMENT_SET_NO": 999, "REV_AT_EPOCH": 87815, "BSTAR": 0.0066531, "MEAN_MOTION_DOT": 0.00052856, "MEAN_MOTION_DDOT": 0}, "tle": {"line1": "1 34091U 97051DA  25343.26483492  .00052856  00000+0  66531-2 0  9992", "line2": "2 34091  86.3413  68.4246 0033239 305.7588  54.0544 14.81387493878159"}}, "geometry": {"type": "Point", "coordinates": [68.28391345096705, 6.478889776578524]}}, {"type": "Feature", "properties": {"norad_id": 34097, "name": "IRIDIUM 33 DEB", "group": "iridium-33-debris", "lat": -84.10432075223427, "lon": -37.65459423492747, "alt_km": 788.0764602859408, "timestamp": "2025-12-10T11:33:53.769249+00:00", "meta": {"OBJECT_NAME": "IRIDIUM 33 DEB", "OBJECT_ID": "1997-051DG", "EPOCH": "2025-12-10T01:54:58.988160", "MEAN_MOTION": 14.34741967, "ECCENTRICITY": 0.0082878, "INCLINATION": 86.2003, "RA_OF_ASC_NODE": 2.5814, "ARG_OF_PERICENTER": 10.8619, "MEAN_ANOMALY": 349.4341, "EPHEMERIS_TYPE": 0, "CLASSIFICATION_TYPE": "U", "NORAD_CAT_ID": 34097, "ELEMENT_SET_NO": 999, "REV_AT_EPOCH": 87081, "BSTAR": 0.0018997, "MEAN_MOTION_DOT": 5.613e-05, "MEAN_MOTION_DDOT": 0}, "tle": {"line1": "1 34097U 97051DG  25344.07984940  .00005613  00000+0  18997-2 0  9994", "line2": "2 34097  86.2003   2.5814 0082878  10.8619 349.4341 14.34741967870810"}}, "geometry": {"type": "Point", "coordinates": [-37.65459423492747, -84.10432075223427]}}, {"type": "Feature", "properties": {"norad_id": 34145, "name": "IRIDIUM 33 DEB", "group": "iridium-33-debris", "lat": 55.74264842090265, "lon": 147.9493598737874, "alt_km": 709.3098662548664, "timestamp": "2025-12-10T11:33:53.769259+00:00", "meta": {"OBJECT_NAME": "IRIDIUM 33 DEB", "OBJECT_ID": "1997-051DY", "EPOCH": "2025-12-09T10:01:09.026976", "MEAN_MOTION": 14.42251473, "ECCENTRICITY": 0.00556161, "INCLINATION": 86.2119, "RA_OF_ASC_NODE": 334.0058, "ARG_OF_PERICENTER": 104.3525, "MEAN_ANOMALY": 256.3858, "EPHEMERIS_TYPE": 0, "CLASSIFICATION_TYPE": "U", "NORAD_CAT_ID": 34145, "ELEMENT_SET_NO": 999, "REV_AT_EPOCH": 87590, "BSTAR": 0.0016534219, "MEAN_MOTION_DOT": 5.573e-05, "MEAN_MOTION_DDOT": 0}, "tle": {"line1": "1 34145U 97051DY  25343.41746559  .00005573  00000+0  16534-2 0  9997", "line2": "2 34145  86.2119 334.0058 0055616 104.3525 256.3858 14.42251473875901"}}, "geometry": {"type": "Point", "coordinates": [147.9493598737874, 55.74264842090265]}}, {"type": "Feature", "properties": {"norad_id": 34146, "name": "IRIDIUM 33 DEB", "group": "iridium-33-debris", "lat": 66.14383851470981, "lon": -0.7504060869104443, "alt_km": 739.6875038411017, "timestamp": "2025-12-10T11:33:53.769269+00:00", "meta": {"OBJECT_NAME": "IRIDIUM 33 DEB", "OBJECT_ID": "1997-051DZ", "EPOCH": "2025-12-10T01:35:00.265056", "MEAN_MOTION": 14.49018235, "ECCENTRICITY": 0.0025277, "INCLINATION": 86.2836, "RA_OF_ASC_NODE": 350.9814, "ARG_OF_PERICENTER": 231.1216, "MEAN_ANOMALY": 187.2967, "EPHEMERIS_TYPE": 0, "CLASSIFICATION_TYPE": "U", "NORAD_CAT_ID": 34146, "ELEMENT_SET_NO": 999, "REV_AT_EPOCH": 88068, "BSTAR": 0.0013153, "MEAN_MOTION_DOT": 5.028e-05, "MEAN_MOTION_DDOT": 0}, "tle": {"line1": "1 34146U 97051DZ  25344.06597529  .00005028  00000+0  13153-2 0  9990", "line2": "2 34146  86.2836 350.9814 0025277 231.1216 187.2967 14.49018235880689"}}, "geometry": {"type": "Point", "coordinates": [-0.7504060869104443, 66.14383851470981]}}, {"type": "Feature", "properties": {"norad_id": 34159, "name": "IRIDIUM 33 DEB", "group": "iridium-33-debris", "lat": -46.678752533749744, "lon": -126.91583176830012, "alt_km": 763.7335167017436, "timestamp": "2025-12-10T11:33:53.769279+00:00", "meta": {"OBJECT_NAME": "IRIDIUM 33 DEB", "OBJECT_ID": "1997-051EN", "EPOCH": "2025-12-10T03:50:01.192128", "MEAN_MOTION": 14.38483084, "ECCENTRICITY": 0.0025998, "INCLINATION": 86.351, "RA_OF_ASC_NODE": 49.3414, "ARG_OF_PERICENTER": 296.9299, "MEAN_ANOMALY": 62.9244, "EPHEMERIS_TYPE": 0, "CLASSIFICATION_TYPE": "U", "NORAD_CAT_ID": 34159, "ELEMENT_SET_NO": 999, "REV_AT_EPOCH": 87922, "BSTAR": 0.00055852, "MEAN_MOTION_DOT": 1.73e-05, "MEAN_MOTION_DDOT": 0}, "tle": {"line1": "1 34159U 97051EN  25344.15973602  .00001730  00000+0  55852-3 0  9993", "line2": "2 34159  86.3510  49.3414 0025998 296.9299  62.9244 14.38483084879229"}}, "geometry": {"type": "Point", "coordinates": [-126.91583176830012, -46.678752533749744]}}, {"type": "Feature", "properties": {"norad_id": 34350, "name": "IRIDIUM 33 DEB", "group": "iridium-33-debris", "lat": -20.11909303221287, "lon": -174.86472619937422, "alt_km": 737.4872815895224, "timestamp": "2025-12-10T11:33:53.769289+00:00", "meta": {"OBJECT_NAME": "IRIDIUM 33 DEB", "OBJECT_ID": "1997-051ES", "EPOCH": "2025-12-10T02:36:29.822400", "MEAN_MOTION": 14.45377158, "ECCENTRICITY": 0.0022586, "INCLINATION": 86.3276, "RA_OF_ASC_NODE": 3.949, "ARG_OF_PERICENTER": 143.3775, "MEAN_ANOMALY": 275.8261, "EPHEMERIS_TYPE": 0, "CLASSIFICATION_TYPE": "U", "NORAD_CAT_ID": 34350, "ELEMENT_SET_NO": 999, "REV_AT_EPOCH": 88255, "BSTAR": 0.00045578, "MEAN_MOTION_DOT": 1.627e-05, "MEAN_MOTION_DDOT": 0}, "tle": {"line1": "1 34350U 97051ES  25344.10867850  .00001627  00000+0  45578-3 0  9997", "line2": "2 34350  86.3276   3.9490 0022586 143.3775 275.8261 14.45377158882551"}}, "geometry": {"type": "Point", "coordinates": [-174.86472619937422, -20.11909303221287]}}, {"type": "Feature", "properties": {"norad_id": 34366, "name": "IRIDIUM 33 DEB", "group": "iridium-33-debris", "lat": 81.83499882377178, "lon": -155.97301874569183, "alt_km": 694.850994484822, "timestamp": "2025-12-10T11:33:53.769299+00:00", "meta": {"OBJECT_NAME": "IRIDIUM 33 DEB", "OBJECT_ID": "1997-051FJ", "EPOCH": "2025-12-10T02:57:49.783104", "MEAN_MOTION": 14.5402034, "ECCENTRICITY": 0.00223, "INCLINATION": 86.369, "RA_OF_ASC_NODE": 50.4509, "ARG_OF_PERICENTER": 147.8902, "MEAN_ANOMALY": 234.883, "EPHEMERIS_TYPE": 0, "CLASSIFICATION_TYPE": "U", "NORAD_CAT_ID": 34366, "ELEMENT_SET_NO": 999, "REV_AT_EPOCH": 88144, "BSTAR": 0.0015809, "MEAN_MOTION_DOT": 6.708e-05, "MEAN_MOTION_DDOT": 0}, "tle": {"line1": "1 34366U 97051FJ  25344.12349286  .00006708  00000+0  15809-2 0  9992", "line2": "2 34366  86.3690  50.4509 0022300 147.8902 234.8830 14.54020340881443"}}, "geometry": {"type": "Point", "coordinates": [-155.97301874569183, 81.83499882377178]}}]}